{
  "type": "FeatureCollection",
  "features": [
    {
      "type": "Feature",
      "properties": {
        "norad_id": 36558,
        "name": "COSMOS 2251 DEB",
        "group": "cosmos-2251-debris",
        "lat": -18.818400256178233,
        "lon": -3.6130560381510843,
        "alt_km": 708.4336563947845,
        "timestamp": "2025-12-04T03:47:54.939473+00:00",
        "meta_object_name": "COSMOS 2251 DEB",
        "meta_object_id": "1993-036BDU",
        "meta_epoch": "2025-11-30T14:44:20.411232",
        "meta_mean_motion": 14.55224096,
        "meta_eccentricity": 0.0013208,
        "meta_inclination": 74.0432,
        "meta_ra_of_asc_node": 177.4971,
        "meta_arg_of_pericenter": 265.9101,
        "meta_mean_anomaly": 94.0552,
        "meta_ephemeris_type": 0,
        "meta_classification_type": "U",
        "meta_norad_cat_id": 36558,
        "meta_element_set_no": 999,
        "meta_rev_at_epoch": 85092,
        "meta_bstar": 0.00073526,
        "meta_mean_motion_dot": 3.158e-05,
        "meta_mean_motion_ddot": 0,
        "tle_line1": "1 36558U 93036BDU 25334.61412513  .00003158  00000+0  73526-3 0  9990",
        "tle_line2": "2 36558  74.0432 177.4971 0013208 265.9101  94.0552 14.55224096850920"
      },
      "geometry": {
        "type": "Point",
        "coordinates": [
          -3.6130560381510843,
          -18.818400256178233
        ]
      }
    },
    {
      "type": "Feature",
      "properties": {
        "norad_id": 36559,
        "name": "COSMOS 2251 DEB",
        "group": "cosmos-2251-debris",
        "lat": 73.9547072587401,
        "lon": 122.93416304613606,
        "alt_km": 741.8154261826567,
        "timestamp": "2025-12-04T03:47:54.939484+00:00",
        "meta_object_name": "COSMOS 2251 DEB",
        "meta_object_id": "1993-036BDV",
        "meta_epoch": "2025-12-03T03:17:00.548160",
        "meta_mean_motion": 13.95062123,
        "meta_eccentricity": 0.02603187,
        "meta_inclination": 74.1298,
        "meta_ra_of_asc_node": 26.2197,
        "meta_arg_of_pericenter": 61.9669,
        "meta_mean_anomaly": 300.7529,
        "meta_ephemeris_type": 0,
        "meta_classification_type": "U",
        "meta_norad_cat_id": 36559,
        "meta_element_set_no": 999,
        "meta_rev_at_epoch": 80960,
        "meta_bstar": 0.0032733881,
        "meta_mean_motion_dot": 5.835e-05,
        "meta_mean_motion_ddot": 0,
        "tle_line1": "1 36559U 93036BDV 25337.13681190  .00005835  00000+0  32734-2 0  9999",
        "tle_line2": "2 36559  74.1298  26.2197 0260318  61.9669 300.7529 13.95062123809606"
      },
      "geometry": {
        "type": "Point",
        "coordinates": [
          122.93416304613606,
          73.9547072587401
        ]
      }
    },
    {
      "type": "Feature",
      "properties": {
        "norad_id": 36614,
        "name": "COSMOS 2251 DEB",
        "group": "cosmos-2251-debris",
        "lat": 61.39968153711384,
        "lon": -137.3172838298089,
        "alt_km": 698.072555104719,
        "timestamp": "2025-12-04T03:47:54.939493+00:00",
        "meta_object_name": "COSMOS 2251 DEB",
        "meta_object_id": "1993-036BEC",
        "meta_epoch": "2025-11-29T08:23:05.068608",
        "meta_mean_motion": 14.60020605,
        "meta_eccentricity": 0.00167217,
        "meta_inclination": 74.0224,
        "meta_ra_of_asc_node": 200.1619,
        "meta_arg_of_pericenter": 270.7966,
        "meta_mean_anomaly": 89.1284,
        "meta_ephemeris_type": 0,
        "meta_classification_type": "U",
        "meta_norad_cat_id": 36614,
        "meta_element_set_no": 999,
        "meta_rev_at_epoch": 65417,
        "meta_bstar": 0.0010676228,
        "meta_mean_motion_dot": 5.109e-05,
        "meta_mean_motion_ddot": 0,
        "tle_line1": "1 36614U 93036BEC 25333.34936422  .00005109  00000+0  10676-2 0  9996",
        "tle_line2": "2 36614  74.0224 200.1619 0016721 270.7966  89.1284 14.60020605654173"
      },
      "geometry": {
        "type": "Point",
        "coordinates": [
          -137.3172838298089,
          61.39968153711384
        ]
      }
    },
    {
      "type": "Feature",
      "properties": {
        "norad_id": 36622,
        "name": "COSMOS 2251 DEB",
        "group": "cosmos-2251-debris",
        "lat": -1.1208544010359207,
        "lon": 161.97949036380498,
        "alt_km": 619.9219042913173,
        "timestamp": "2025-12-04T03:47:54.939504+00:00",
        "meta_object_name": "COSMOS 2251 DEB",
        "meta_object_id": "1993-036BEL",
        "meta_epoch": "2025-12-03T05:01:52.298112",
        "meta_mean_motion": 14.76060389,
        "meta_eccentricity": 0.0068654,
        "meta_inclination": 74.0123,
        "meta_ra_of_asc_node": 164.1599,
        "meta_arg_of_pericenter": 301.45,
        "meta_mean_anomaly": 57.9974,
        "meta_ephemeris_type": 0,
        "meta_classification_type": "U",
        "meta_norad_cat_id": 36622,
        "meta_element_set_no": 999,
        "meta_rev_at_epoch": 66609,
        "meta_bstar": 0.0007971,
        "meta_mean_motion_dot": 5.681e-05,
        "meta_mean_motion_ddot": 0,
        "tle_line1": "1 36622U 93036BEL 25337.20963308  .00005681  00000+0  79710-3 0  9997",
        "tle_line2": "2 36622  74.0123 164.1599 0068654 301.4500  57.9974 14.76060389666097"
      },
      "geometry": {
        "type": "Point",
        "coordinates": [
          161.97949036380498,
          -1.1208544010359207
        ]
      }
    },
    {
      "type": "Feature",
      "properties": {
        "norad_id": 36632,
        "name": "COSMOS 2251 DEB",
        "group": "cosmos-2251-debris",
        "lat": 71.68231367643858,
        "lon": 68.27435115764821,
        "alt_km": 723.925397928012,
        "timestamp": "2025-12-04T03:47:54.939514+00:00",
        "meta_object_name": "COSMOS 2251 DEB",
        "meta_object_id": "1993-036BEW",
        "meta_epoch": "2025-12-02T14:44:27.820896",
        "meta_mean_motion": 14.43079898,
        "meta_eccentricity": 0.00315122,
        "meta_inclination": 74.0016,
        "meta_ra_of_asc_node": 311.214,
        "meta_arg_of_pericenter": 61.7706,
        "meta_mean_anomaly": 298.6626,
        "meta_ephemeris_type": 0,
        "meta_classification_type": "U",
        "meta_norad_cat_id": 36632,
        "meta_element_set_no": 999,
        "meta_rev_at_epoch": 65069,
        "meta_bstar": 0.0010615143,
        "meta_mean_motion_dot": 3.557e-05,
        "meta_mean_motion_ddot": 0,
        "tle_line1": "1 36632U 93036BEW 25336.61421089  .00003557  00000+0  10615-2 0  9995",
        "tle_line2": "2 36632  74.0016 311.2140 0031512  61.7706 298.6626 14.43079898650699"
      },
      "geometry": {
        "type": "Point",
        "coordinates": [
          68.27435115764821,
          71.68231367643858
        ]
      }
    },
    {
      "type": "Feature",
      "properties": {
        "norad_id": 37084,
        "name": "COSMOS 2251 DEB",
        "group": "cosmos-2251-debris",
        "lat": 58.6421761697613,
        "lon": -29.109340292140686,
        "alt_km": 613.4418993785384,
        "timestamp": "2025-12-04T03:47:54.939523+00:00",
        "meta_object_name": "COSMOS 2251 DEB",
        "meta_object_id": "1993-036BFE",
        "meta_epoch": "2025-12-01T06:28:31.045728",
        "meta_mean_motion": 15.00732489,
        "meta_eccentricity": 0.0098181,
        "meta_inclination": 74.0271,
        "meta_ra_of_asc_node": 184.8055,
        "meta_arg_of_pericenter": 268.0487,
        "meta_mean_anomaly": 90.9454,
        "meta_ephemeris_type": 0,
        "meta_classification_type": "U",
        "meta_norad_cat_id": 37084,
        "meta_element_set_no": 999,
        "meta_rev_at_epoch": 66095,
        "meta_bstar": 0.00060454,
        "meta_mean_motion_dot": 8.458e-05,
        "meta_mean_motion_ddot": 0,
        "tle_line1": "1 37084U 93036BFE 25335.26980377  .00008458  00000+0  60454-3 0  9999",
        "tle_line2": "2 37084  74.0271 184.8055 0098181 268.0487  90.9454 15.00732489660954"
      },
      "geometry": {
        "type": "Point",
        "coordinates": [
          -29.109340292140686,
          58.6421761697613
        ]
      }
    },
    {
      "type": "Feature",
      "properties": {
        "norad_id": 37085,
        "name": "COSMOS 2251 DEB",
        "group": "cosmos-2251-debris",
        "lat": 24.055289007415467,
        "lon": -117.91616290065276,
        "alt_km": 436.99547532891484,
        "timestamp": "2025-12-04T03:47:54.939534+00:00",
        "meta_object_name": "COSMOS 2251 DEB",
        "meta_object_id": "1993-036BFF",
        "meta_epoch": "2025-12-02T23:36:37.668384",
        "meta_mean_motion": 15.39020756,
        "meta_eccentricity": 0.0022856,
        "meta_inclination": 73.9503,
        "meta_ra_of_asc_node": 237.2473,
        "meta_arg_of_pericenter": 76.375,
        "meta_mean_anomaly": 284,
        "meta_ephemeris_type": 0,
        "meta_classification_type": "U",
        "meta_norad_cat_id": 37085,
        "meta_element_set_no": 999,
        "meta_rev_at_epoch": 66987,
        "meta_bstar": 0.0028642077,
        "meta_mean_motion_dot": 0.00113322,
        "meta_mean_motion_ddot": 0,
        "tle_line1": "1 37085U 93036BFF 25336.98376931  .00113322  00000+0  28642-2 0  9994",
        "tle_line2": "2 37085  73.9503 237.2473 0022856  76.3750 284.0000 15.39020756669879"
      },
      "geometry": {
        "type": "Point",
        "coordinates": [
          -117.91616290065276,
          24.055289007415467
        ]
      }
    }
  ]
}